STARLINK-6308           
1 56534U 23065AH  24237.10721369  .00000443  00000+0  47887-4 0  9994
2 56534  43.0030  14.5921 0001072 268.0944  91.9776 15.02537438 71364
STARLINK-6309           
1 56535U 23065AJ  24237.15986431  .00001396  00000+0  11836-3 0  9995
2 56535  43.0050  40.1591 0001231 270.5900  89.4802 15.02536722 71077
STARLINK-6312           
1 56536U 23065AK  24236.82858219  .00002605  00000+0  20781-3 0  9994
2 56536  43.0026  41.9733 0001323 266.8914  93.1777 15.02539831 71025
STARLINK-6311           
1 56537U 23065AL  24236.15936644  .00000733  00000+0  69343-4 0  9998
2 56537  42.9984  45.5573 0000526 272.0360  88.0422 15.02533451 71704
STARLINK-6314           
1 56538U 23065AM  24236.65951006  .00000598  00000+0  59365-4 0  9995
2 56538  43.0044  16.3969 0001146 257.8181 102.2533 15.02538452 71304
STARLINK-6135           
1 56539U 23065AN  24236.48176325  .00002130  00000+0  17268-3 0  9999
2 56539  43.0011  43.6788 0001024 294.0287  66.0448 15.02537349 71751
STARLINK-6136           
1 56540U 23065AP  24237.16430427  .00001016  00000+0  90282-4 0  9993
2 56540  43.0055  40.1975 0001367 268.6811  91.3875 15.02536083 71075
STARLINK-6249           
1 56541U 23065AQ  24236.47955091  .00007667  00000+0  58211-3 0  9999
2 56541  43.0040  43.6577 0001321 272.9321  87.1370 15.02531478 71751
STARLINK-6266           
1 56542U 23065AR  24236.81748671 -.00000119  00000+0  62329-5 0  9995
2 56542  43.0049  41.8931 0001393 274.4454  85.6229 15.02532258 71021
STARLINK-6228           
1 56543U 23065AS  24237.13766101  .00000531  00000+0  54361-4 0  9993
2 56543  43.0029  39.9941 0001273 260.8151  99.2547 15.02545502 71074
STARLINK-6226           
1 56544U 23065AT  24236.48287734  .00002873  00000+0  22769-3 0  9998
2 56544  43.0021  43.6799 0000533 245.6466 114.4321 15.02524188 71750
STARLINK-6086           
1 56545U 23065AU  24236.80084521  .00006001  00000+0  45912-3 0  9996
2 56545  43.0039  41.7669 0001040 252.1039 107.9690 15.02519140 71026
STARLINK-6187           
1 56546U 23065AV  24237.14098982 -.00000146  00000+0  43075-5 0  9996
2 56546  43.0045  40.0181 0001479 259.0292 101.0384 15.02540510 71073
STARLINK-6291           
1 56547U 23065AW  24236.53270478  .00000671  00000+0  64717-4 0  9998
2 56547  43.0041  43.1927 0001305 269.1680  90.9013 15.02535447 71767
STARLINK-6244           
1 56548U 23065AX  24236.58334491 -.00015491  00000+0 -11339-2 0  9998
2 56548  43.0037  42.9913 0001338 269.2407 335.0132 15.02546802  5836
STARLINK-6263           
1 56549U 23065AY  24236.19032770  .00000532  00000+0  54452-4 0  9994
2 56549  43.0023  44.9272 0000795 278.2010  81.8743 15.02533563 71712
STARLINK-6255           
1 56550U 23065AZ  24236.73103034  .00001006  00000+0  89551-4 0  9993
2 56550  43.0041  42.1012 0001568 265.4750  94.5913 15.02535257 71019
STARLINK-6199           
1 56551U 23065BA  24237.18305664 -.00000828  00000+0 -46208-4 0  9992
2 56551  43.0016  39.4735 0001128 266.9720  93.0993 15.02541496 71089
STARLINK-5802           
1 56552U 23065BB  24236.72436932  .00002486  00000+0  19906-3 0  9999
2 56552  43.0058  42.0501 0001734 253.8734 106.1918 15.02534990 71017
STARLINK-6074           
1 56553U 23065BC  24236.51494340 -.00000846  00000+0 -47555-4 0  9996
2 56553  43.0071  43.0611 0002027 258.7751 101.2863 15.02538419 71762
STARLINK-6295           
1 56554U 23065BD  24236.78529936  .00000727  00000+0  68878-4 0  9993
2 56554  43.0051  41.6490 0001219 261.0440  99.0265 15.02533838 71023
STARLINK-6252           
1 56555U 23065BE  24237.17306180  .00001722  00000+0  14254-3 0  9996
2 56555  43.0060  39.3979 0001593 272.8789  87.1871 15.02540762 71082
STARLINK-5302           
1 56556U 23065BF  24236.77753112  .00000132  00000+0  24824-4 0  9992
2 56556  43.0052  41.5897 0001394 268.9954  91.0729 15.02530194 71025
STARLINK-6265           
1 56557U 23065BG  24237.16973545  .00001616  00000+0  13469-3 0  9991
2 56557  43.0057  39.3733 0001260 267.6731  92.3967 15.02536924 71087
STARLINK-6286           
1 56558U 23065BH  24236.83512792  .00000936  00000+0  84395-4 0  9999
2 56558  43.0059  41.1601 0001415 270.1392  89.9288 15.02533282 71036
STARLINK-30122          
1 56688U 23067A   24236.62252552 -.00003371  00000+0 -23475-3 0  9996
2 56688  43.0003  94.5299 0001034 230.1947 129.8805 15.02509468 70108
STARLINK-30129          
1 56689U 23067B   24236.87843196 -.00000410  00000+0 -15301-4 0  9995
2 56689  43.0026  93.0196 0001207 277.7777  82.2928 15.02530835 70148
STARLINK-30124          
1 56690U 23067C   24236.87509978  .00001481  00000+0  12472-3 0  9996
2 56690  43.0025  93.0055 0001593 261.3162  98.7500 15.02534724 70147
STARLINK-30087          
1 56691U 23067D   24236.83335648  .00425111  70428-4  17859-2 0  9993
2 56691  42.9873  11.3676 0035284 329.6388 351.2424 15.83716158 71090
STARLINK-30036          
1 56692U 23067E   24236.33662084  .00001626  00000+0  13540-3 0  9995
2 56692  43.0011  95.8658 0000754 279.6527  80.4230 15.02540749 69788
STARLINK-30067          
1 56693U 23067F   24236.99474016  .00003509  00000+0  27468-3 0  9990
2 56693  43.0027  92.2025 0001182 272.1207  87.9500 15.02537627 70161
STARLINK-30126          
1 56694U 23067G   24236.86511626  .00003625  00000+0  28332-3 0  9996
2 56694  43.0014  92.9486 0001192 262.3824  97.6883 15.02532186 70148
STARLINK-30121          
1 56695U 23067H   24236.32662810  .00001434  00000+0  12121-3 0  9995
2 56695  43.0025  95.7679 0001078 269.9137  90.1582 15.02532044 70911
STARLINK-30130          
1 56697U 23067K   24237.03125790 -.00001110  00000+0 -67100-4 0  9998
2 56697  43.0063  91.6093 0000792 282.1625  77.9128 15.02528652 70178
STARLINK-30068          
1 56698U 23067L   24236.30690533  .00002550  00000+0  20381-3 0  9996
2 56698  43.0028  82.6469 0001515 263.9184  96.1486 15.02534813 70804
STARLINK-30127          
1 56699U 23067M   24236.98807941  .00000491  00000+0  51409-4 0  9992
2 56699  43.0054  92.1511 0001230 278.2244  81.8459 15.02535132 70163
STARLINK-30053          
1 56700U 23067N   24236.31997048  .00001334  00000+0  11384-3 0  9994
2 56700  43.0018  95.7379 0001650 270.4306  89.6347 15.02537094 70910
STARLINK-30125          
1 56701U 23067P   24236.71550841  .00000478  00000+0  50446-4 0  9996
2 56701  43.0021  93.5467 0001409 274.8671  85.2011 15.02533356 70124
STARLINK-30117          
1 56702U 23067Q   24236.61917125  .00003291  00000+0  25855-3 0  9999
2 56702  43.0012  94.4753 0001518 265.6243  94.4426 15.02538489 70109
STARLINK-30132          
1 56703U 23067R   24236.97809028  .00001254  00000+0  10788-3 0  9997
2 56703  43.0027  92.0625 0001372 275.2948  84.7738 15.02537084 70169
STARLINK-30066          
1 56704U 23067S   24237.02457990  .00002983  00000+0  23584-3 0  9990
2 56704  43.0052  91.5413 0002289 271.4491  88.6089 15.02537431 70175
STARLINK-30080          
1 56705U 23067T   24236.56949854 -.00001386  00000+0 -87518-4 0  9990
2 56705  43.0003  81.2438 0001124 272.9695  87.1018 15.02546431 71104
STARLINK-30079          
1 56706U 23067U   24236.30665231 -.00001237  00000+0 -76535-4 0  9999
2 56706  43.0022  95.6372 0001415 275.9000  84.1681 15.02531049 70918
STARLINK-30070          
1 56707U 23067V   24237.04124880  .00011739  00000+0  88219-3 0  9999
2 56707  43.0027  91.6877 0001616 256.5116 103.5546 15.02553111 70174
STARLINK-30071          
1 56708U 23067W   24236.89496503 -.00001262  00000+0 -78344-4 0  9997
2 56708  43.0027  92.3086 0001526 272.9065  87.1603 15.02535004 70150
STARLINK-30085          
1 56709U 23067X   24236.90162953 -.00000062  00000+0  10515-4 0  9991
2 56709  43.0024  92.3585 0001153 278.9957  81.0754 15.02528660 70154
STARLINK-6197           
1 56767U 23078A   24236.55478875  .00002459  00000+0  21383-3 0  9996
2 56767  70.0032 344.3734 0002919 269.3020  90.7805 14.98332763 68094
STARLINK-6198           
1 56768U 23078B   24236.61272375  .00001470  00000+0  13096-3 0  9995
2 56768  69.9993 304.0377 0003181 272.6562  87.4233 14.98328326 69093
STARLINK-5978           
1 56769U 23078C   24236.67995746  .00000222  00000+0  26373-4 0  9993
2 56769  70.0009 344.0022 0003534 270.7437  89.3317 14.98331423 68116
STARLINK-6342           
1 56770U 23078D   24237.01793269 -.00000058  00000+0  29356-5 0  9993
2 56770  70.0023 343.1787 0002797 271.2105  88.8734 14.98332278 68161
STARLINK-6339           
1 56771U 23078E   24237.17997242  .00000391  00000+0  40541-4 0  9995
2 56771  69.9984 282.8989 0003013 269.9328  90.1486 14.98333947 69661
STARLINK-6275           
1 56772U 23078F   24237.00958203  .00006162  00000+0  52331-3 0  9993
2 56772  70.0053 343.1488 0003099 265.5115  94.5690 14.98365403 68168
STARLINK-6296           
1 56773U 23078G   24236.57511584  .00001284  00000+0  11536-3 0  9994
2 56773  69.9989 284.4169 0002878 271.3722  88.7107 14.98328969 69312
STARLINK-6190           
1 56774U 23078H   24236.59666754  .00003297  00000+0  28391-3 0  9990
2 56774  70.0025 344.1184 0003183 273.8670  86.2125 14.98335841 67843
STARLINK-6292           
1 56775U 23078J   24237.17580076  .00000014  00000+0  89900-5 0  9997
2 56775  69.9978 282.9000 0003023 272.2239  87.8574 14.98328715 69660
STARLINK-6274           
1 56776U 23078K   24237.20108252 -.00000290  00000+0 -16519-4 0  9997
2 56776  69.9984 302.8682 0002191 249.0982 110.9943 14.98321250 69179
STARLINK-5582           
1 56777U 23078L   24236.55874056  .00001864  00000+0  16394-3 0  9993
2 56777  70.0021 324.5148 0002817 266.2600  93.8237 14.98330369 68328
STARLINK-6304           
1 56778U 23078M   24236.59605581  .00000701  00000+0  66538-4 0  9998
2 56778  70.0001 304.3730 0002914 264.5885  95.4942 14.98328231 68825
STARLINK-6231           
1 56779U 23078N   24237.17184900 -.00000110  00000+0 -14218-5 0  9996
2 56779  69.9998 302.7706 0002832 266.5549  93.5286 14.98330760 69170
